{"type":"FeatureCollection","features":[{"type":"Feature","properties":{"n":"Great Salt Lake Desert"},"geometry":{"type":"Polygon","coordinates":[[[-113.062,40.284],[-112.992,40.259],[-113.0,40.242],[-113.069,40.208],[-113.118,40.21],[-113.239,40.261],[-113.309,40.235],[-113.328,40.194],[-113.327,40.118],[-113.272,40.053],[-113.272,40.002],[-113.238,39.947],[-113.294,39.879],[-113.342,39.856],[-113.375,39.91],[-113.415,39.929],[-113.585,39.906],[-113.621,39.92],[-113.678,40.004],[-113.663,40.07],[-113.676,40.136],[-113.729,40.225],[-113.788,40.293],[-113.831,40.316],[-113.829,40.367],[-113.874,40.399],[-113.965,40.415],[-114.004,40.499],[-114.083,40.538],[-114.091,40.668],[-114.073,40.7],[-113.766,40.923],[-113.679,40.953],[-113.693,40.984],[-113.761,41.026],[-113.724,41.067],[-113.745,41.13],[-113.771,41.152],[-113.808,41.114],[-113.886,40.955],[-113.935,40.903],[-114.035,40.87],[-114.079,40.875],[-114.088,40.896],[-113.931,41.053],[-113.897,41.067],[-113.916,41.168],[-113.844,41.158],[-113.828,41.19],[-113.867,41.225],[-113.861,41.301],[-113.748,41.336],[-113.721,41.412],[-113.647,41.435],[-113.488,41.445],[-113.432,41.496],[-113.366,41.506],[-113.33,41.488],[-113.282,41.384],[-113.155,41.267],[-113.09,41.233],[-113.073,41.235],[-113.061,41.268],[-113.096,41.346],[-113.091,41.381],[-113.015,41.406],[-113.018,41.353],[-113.048,41.293],[-113.027,41.179],[-112.991,41.163],[-112.995,41.147],[-113.187,40.972],[-113.207,40.909],[-113.201,40.798],[-113.244,40.724],[-113.195,40.72],[-113.207,40.682],[-113.184,40.618],[-113.199,40.561],[-113.189,40.525],[-113.123,40.501],[-113.099,40.475],[-113.084,40.308],[-113.062,40.284]],[[-113.264,40.446],[-113.253,40.484],[-113.266,40.517],[-113.291,40.524],[-113.331,40.463],[-113.322,40.431],[-113.289,40.422],[-113.264,40.446]],[[-113.34,40.975],[-113.325,41.027],[-113.354,41.093],[-113.354,41.134],[-113.29,41.268],[-113.326,41.293],[-113.383,41.301],[-113.428,41.236],[-113.441,41.146],[-113.382,40.993],[-113.368,40.976],[-113.34,40.975]]]}},{"type":"Feature","properties":{"n":"Rann of Kutch"},"geometry":{"type":"MultiPolygon","coordinates":[[[[71.381,24.361],[71.302,24.245],[71.325,24.216],[71.317,24.145],[71.35,24.033],[71.334,23.96],[71.199,23.925],[71.124,23.885],[71.083,23.816],[71.088,23.692],[71.07,23.659],[71.009,23.652],[70.982,23.706],[70.946,23.734],[70.851,23.72],[70.834,23.743],[70.837,23.766],[70.89,23.806],[70.921,23.853],[70.922,23.908],[70.906,23.933],[70.712,23.977],[70.595,23.976],[70.564,23.961],[70.555,23.907],[70.635,23.799],[70.527,23.673],[70.303,23.55],[70.277,23.524],[70.274,23.432],[70.206,23.397],[70.175,23.42],[70.192,23.484],[70.154,23.494],[70.042,23.476],[70.01,23.504],[70.046,23.552],[70.037,23.571],[69.915,23.595],[69.9,23.62],[69.907,23.701],[69.963,23.763],[69.953,23.823],[69.975,23.933],[69.95,23.972],[69.861,24.007],[69.764,23.983],[69.674,23.852],[69.616,23.805],[69.544,23.787],[69.391,23.782],[69.212,23.828],[69.197,23.8],[69.216,23.775],[69.162,23.764],[69.133,23.722],[69.095,23.704],[68.955,23.785],[68.869,23.812],[68.835,23.844],[68.784,23.852],[68.822,23.878],[68.767,23.878],[68.718,23.841],[68.634,23.833],[68.599,23.782],[68.428,23.714],[68.342,23.624],[68.349,23.603],[68.318,23.586],[68.181,23.594],[68.143,23.613],[68.198,23.659],[68.233,23.645],[68.276,23.666],[68.281,23.686],[68.241,23.674],[68.209,23.696],[68.198,23.775],[68.168,23.747],[68.183,23.844],[68.158,23.905],[68.17,23.84],[68.143,23.761],[68.149,23.695],[68.102,23.734],[68.099,23.709],[68.082,23.709],[68.054,23.744],[68.074,23.765],[68.082,23.806],[68.102,23.809],[68.059,23.862],[68.064,23.923],[68.014,23.939],[68.054,23.829],[68.014,23.769],[67.994,23.811],[67.951,23.809],[67.934,23.833],[67.91,23.836],[67.9,23.867],[67.869,23.85],[67.855,23.912],[67.832,23.809],[67.719,23.844],[67.744,23.809],[67.694,23.794],[67.632,23.804],[67.65,23.933],[67.637,23.874],[67.614,23.85],[67.588,23.885],[67.575,23.872],[67.547,23.898],[67.53,23.891],[67.547,23.871],[67.491,23.883],[67.478,23.892],[67.513,23.898],[67.541,23.939],[67.499,23.925],[67.506,23.974],[67.451,23.988],[67.478,24.032],[67.492,24.028],[67.532,24.061],[67.616,24.065],[67.658,24.084],[67.652,24.151],[67.677,24.176],[67.807,24.158],[67.974,24.182],[68.057,24.135],[68.166,24.163],[68.189,24.117],[68.19,24.063],[68.367,24.076],[68.59,24.166],[68.596,24.262],[68.71,24.308],[68.848,24.263],[68.85,24.227],[68.903,24.185],[69.089,24.123],[69.123,24.117],[69.23,24.16],[69.267,24.152],[69.382,24.045],[69.408,24.042],[69.483,24.083],[69.561,24.028],[69.656,24.038],[69.707,24.093],[69.785,24.13],[70.02,24.17],[70.056,24.189],[69.999,24.223],[69.993,24.247],[70.038,24.308],[70.209,24.323],[70.49,24.421],[70.554,24.416],[70.58,24.398],[70.582,24.309],[70.613,24.265],[70.653,24.24],[70.737,24.24],[70.894,24.291],[70.883,24.325],[70.912,24.35],[71.064,24.388],[71.091,24.409],[71.099,24.446],[71.026,24.465],[71.007,24.486],[70.981,24.623],[71.061,24.678],[71.162,24.702],[71.282,24.688],[71.31,24.665],[71.288,24.619],[71.29,24.579],[71.346,24.499],[71.35,24.427],[71.381,24.361]]],[[[71.685,23.203],[71.767,23.17],[71.782,23.151],[71.765,23.115],[71.625,23.156],[71.402,23.157],[71.319,23.178],[71.27,23.16],[71.232,23.199],[71.168,23.183],[71.123,23.221],[71.038,23.179],[70.935,23.165],[70.85,23.111],[70.812,23.159],[70.785,23.165],[70.575,23.021],[70.519,23.007],[70.524,23.07],[70.467,23.13],[70.507,23.177],[70.626,23.203],[71.072,23.483],[71.084,23.505],[71.081,23.595],[71.149,23.658],[71.176,23.707],[71.206,23.728],[71.267,23.727],[71.331,23.758],[71.423,23.738],[71.431,23.706],[71.408,23.631],[71.413,23.593],[71.44,23.566],[71.479,23.549],[71.559,23.546],[71.568,23.459],[71.612,23.418],[71.639,23.333],[71.692,23.267],[71.685,23.203]]]]}},{"type":"Feature","properties":{"n":"Salar de Uyuni"},"geometry":{"type":"Polygon","coordinates":[[[-67.001,-20.306],[-66.958,-20.405],[-67.089,-20.455],[-67.152,-20.605],[-67.266,-20.626],[-67.304,-20.701],[-67.334,-20.714],[-67.451,-20.675],[-67.484,-20.648],[-67.538,-20.527],[-67.71,-20.356],[-67.764,-20.38],[-67.842,-20.493],[-67.862,-20.494],[-67.884,-20.424],[-67.92,-20.406],[-68.039,-20.402],[-68.064,-20.445],[-68.055,-20.515],[-68.161,-20.554],[-68.183,-20.547],[-68.211,-20.49],[-68.215,-20.293],[-68.154,-20.197],[-68.169,-20.106],[-68.14,-20.019],[-68.144,-19.99],[-68.189,-19.935],[-68.182,-19.911],[-68.165,-19.894],[-68.122,-19.891],[-68.022,-19.791],[-67.954,-19.857],[-67.84,-19.818],[-67.772,-19.894],[-67.649,-19.983],[-67.529,-19.92],[-67.512,-19.886],[-67.494,-19.816],[-67.564,-19.703],[-67.558,-19.689],[-67.285,-19.744],[-67.236,-19.785],[-67.198,-19.913],[-67.154,-20.189],[-67.119,-20.234],[-67.043,-20.267],[-67.001,-20.306]]]}},{"type":"Feature","properties":{"n":"Dasht-e Kavir"},"geometry":{"type":"Polygon","coordinates":[[[56.948,34.643],[56.987,34.536],[56.972,34.472],[56.949,34.445],[56.863,34.437],[56.792,34.35],[56.729,34.339],[56.696,34.372],[56.685,34.437],[56.63,34.459],[56.501,34.39],[56.381,34.354],[56.323,34.289],[56.301,34.236],[56.247,34.198],[56.224,34.157],[56.22,34.133],[56.274,34.097],[56.268,34.053],[56.209,33.979],[56.099,33.908],[56.046,33.747],[55.991,33.687],[55.909,33.647],[55.884,33.526],[55.788,33.41],[55.722,33.427],[55.644,33.485],[55.524,33.698],[55.467,33.742],[55.26,33.786],[55.217,33.827],[55.205,33.924],[55.214,33.99],[55.401,34.173],[55.425,34.244],[55.353,34.269],[55.074,34.277],[54.92,34.232],[54.757,34.259],[54.552,34.238],[54.453,34.138],[54.362,34.138],[54.125,33.971],[54.136,33.903],[54.114,33.815],[54.097,33.798],[54.07,33.799],[54.027,33.868],[53.992,33.831],[53.958,33.739],[53.854,33.82],[53.814,33.883],[53.708,33.906],[53.671,33.993],[53.618,33.954],[53.583,34.007],[53.526,33.979],[53.496,33.93],[53.37,33.912],[53.302,33.944],[53.192,34.048],[53.039,34.098],[52.89,34.209],[52.772,34.263],[52.794,34.298],[52.876,34.334],[53.032,34.475],[53.05,34.512],[53.063,34.649],[53.158,34.603],[53.214,34.543],[53.26,34.547],[53.355,34.592],[53.423,34.589],[53.445,34.613],[53.471,34.726],[53.535,34.774],[53.753,34.791],[53.813,34.809],[53.93,34.793],[53.974,34.806],[54.237,34.97],[54.587,35.081],[54.776,35.21],[54.843,35.228],[55.041,35.233],[55.244,35.307],[55.647,35.359],[55.712,35.398],[55.739,35.51],[55.774,35.534],[55.853,35.551],[55.911,35.609],[55.981,35.646],[56.207,35.653],[56.25,35.608],[56.226,35.551],[56.232,35.527],[56.287,35.528],[56.348,35.484],[56.37,35.441],[56.37,35.398],[56.394,35.362],[56.521,35.329],[56.554,35.305],[56.637,35.168],[56.795,35.029],[56.842,34.941],[56.908,34.908],[56.862,34.806],[56.879,34.768],[56.96,34.728],[56.948,34.643]]]}},{"type":"Feature","properties":{"n":"Sevier Lake"},"geometry":{"type":"Polygon","coordinates":[[[-113.167,39.07],[-113.139,39.095],[-113.103,39.097],[-113.01,39.028],[-113.109,38.86],[-113.12,38.76],[-113.194,38.735],[-113.219,38.739],[-113.221,38.866],[-113.165,38.917],[-113.211,38.975],[-113.167,39.07]]]}},{"type":"Feature","properties":{"n":"Carson Sink"},"geometry":{"type":"Polygon","coordinates":[[[-118.777,39.863],[-118.724,39.849],[-118.697,39.825],[-118.662,39.863],[-118.638,39.861],[-118.557,39.924],[-118.46,39.944],[-118.357,39.996],[-118.278,40.0],[-118.241,39.987],[-118.225,39.959],[-118.239,39.888],[-118.398,39.589],[-118.409,39.621],[-118.356,39.714],[-118.363,39.726],[-118.409,39.706],[-118.415,39.741],[-118.396,39.782],[-118.454,39.754],[-118.476,39.722],[-118.587,39.724],[-118.515,39.858],[-118.522,39.889],[-118.576,39.881],[-118.71,39.793],[-118.698,39.749],[-118.733,39.731],[-118.776,39.74],[-118.747,39.77],[-118.777,39.807],[-118.753,39.833],[-118.82,39.848],[-118.836,39.876],[-118.789,39.921],[-118.716,39.944],[-118.695,39.936],[-118.703,39.914],[-118.763,39.9],[-118.777,39.863]]]}},{"type":"Feature","properties":{"n":"Railroad Valley"},"geometry":{"type":"Polygon","coordinates":[[[-115.704,38.587],[-115.629,38.663],[-115.606,38.667],[-115.611,38.63],[-115.574,38.643],[-115.526,38.596],[-115.561,38.594],[-115.559,38.519],[-115.594,38.435],[-115.636,38.428],[-115.73,38.462],[-115.732,38.52],[-115.704,38.587]]]}},{"type":"Feature","properties":{"n":"Salar de Arizaro"},"geometry":{"type":"Polygon","coordinates":[[[-67.587,-24.497],[-67.429,-24.392],[-67.421,-24.412],[-67.452,-24.543],[-67.432,-24.612],[-67.484,-24.797],[-67.551,-24.9],[-67.621,-25.059],[-67.652,-25.08],[-67.682,-25.067],[-67.822,-24.867],[-67.889,-24.801],[-67.908,-24.793],[-67.968,-24.86],[-67.985,-24.861],[-67.98,-24.83],[-67.913,-24.712],[-67.772,-24.69],[-67.641,-24.591],[-67.587,-24.497]]]}},{"type":"Feature","properties":{"n":"Salar de Atacama"},"geometry":{"type":"Polygon","coordinates":[[[-68.061,-22.941],[-68.036,-23.024],[-68.076,-23.131],[-68.068,-23.219],[-68.108,-23.321],[-68.089,-23.41],[-68.137,-23.568],[-68.092,-23.727],[-68.233,-23.715],[-68.328,-23.618],[-68.38,-23.615],[-68.51,-23.721],[-68.54,-23.727],[-68.548,-23.688],[-68.527,-23.591],[-68.394,-23.349],[-68.373,-23.235],[-68.189,-22.957],[-68.139,-22.917],[-68.095,-22.917],[-68.061,-22.941]]]}},{"type":"Feature","properties":{"n":"Salar de Coipasa"},"geometry":{"type":"Polygon","coordinates":[[[-68.257,-19.547],[-68.336,-19.469],[-68.305,-19.424],[-68.215,-19.385],[-68.195,-19.351],[-68.189,-19.277],[-68.284,-19.199],[-68.178,-19.111],[-68.048,-19.142],[-67.992,-19.142],[-67.957,-19.221],[-67.873,-19.24],[-67.847,-19.301],[-67.737,-19.364],[-67.719,-19.39],[-67.752,-19.464],[-67.798,-19.521],[-67.829,-19.534],[-67.902,-19.494],[-67.978,-19.499],[-68.117,-19.563],[-68.204,-19.655],[-68.229,-19.64],[-68.257,-19.547]]]}},{"type":"Feature","properties":{"n":"Daryacheh-ye Namak"},"geometry":{"type":"Polygon","coordinates":[[[52.142,34.511],[52.162,34.465],[52.134,34.388],[52.045,34.361],[51.662,34.335],[51.571,34.405],[51.584,34.491],[51.568,34.508],[51.598,34.555],[51.729,34.594],[51.758,34.647],[51.772,34.732],[51.851,34.787],[51.93,34.76],[51.971,34.706],[52.004,34.688],[52.039,34.623],[52.142,34.511]]]}},{"type":"Feature","properties":{"n":"Kevir-e Namak"},"geometry":{"type":"Polygon","coordinates":[[[59.553,34.503],[59.501,34.382],[59.518,34.251],[59.453,34.267],[59.392,34.263],[59.365,34.288],[59.347,34.35],[59.3,34.378],[59.262,34.437],[59.098,34.492],[59.07,34.546],[58.967,34.582],[58.927,34.624],[58.771,34.661],[58.68,34.732],[58.594,34.754],[58.508,34.746],[58.448,34.782],[58.368,34.782],[58.298,34.82],[58.24,34.797],[58.145,34.795],[57.833,34.66],[57.741,34.476],[57.576,34.341],[57.547,34.238],[57.494,34.157],[57.497,34.13],[57.542,34.075],[57.543,34.027],[57.485,33.971],[57.46,33.885],[57.418,33.917],[57.326,34.099],[57.335,34.186],[57.403,34.33],[57.414,34.541],[57.475,34.708],[57.532,34.778],[57.854,34.907],[57.948,34.967],[58.054,34.992],[58.119,35.027],[58.319,35.03],[58.546,35.061],[58.577,35.042],[58.618,35.046],[58.701,35.079],[58.778,35.15],[58.802,35.144],[58.826,35.111],[58.83,34.966],[58.783,34.894],[58.83,34.828],[58.912,34.779],[58.989,34.787],[59.06,34.74],[59.237,34.757],[59.277,34.745],[59.341,34.651],[59.397,34.61],[59.419,34.543],[59.534,34.541],[59.55,34.534],[59.553,34.503]]]}},{"type":"Feature","properties":{"n":"Etosha Pan"},"geometry":{"type":"Polygon","coordinates":[[[16.825,-18.79],[16.87,-18.803],[16.861,-18.829],[16.725,-18.838],[16.653,-18.9],[16.309,-18.989],[16.254,-19.025],[16.138,-19.039],[16.043,-19.102],[15.995,-19.092],[15.925,-19.043],[15.866,-18.904],[15.896,-18.786],[15.945,-18.721],[15.976,-18.709],[16.087,-18.71],[16.197,-18.678],[16.274,-18.689],[16.419,-18.635],[16.454,-18.659],[16.594,-18.616],[16.576,-18.542],[16.64,-18.517],[16.69,-18.525],[16.754,-18.575],[16.75,-18.592],[16.69,-18.627],[16.726,-18.726],[16.764,-18.726],[16.816,-18.7],[16.838,-18.707],[16.817,-18.762],[16.825,-18.79]]]}},{"type":"Feature","properties":{"n":"Chott el Djerid"},"geometry":{"type":"Polygon","coordinates":[[[8.932,33.905],[8.868,33.917],[8.815,33.949],[8.774,33.915],[8.782,33.879],[8.84,33.868],[8.876,33.823],[8.74,33.83],[8.689,33.883],[8.637,33.848],[8.699,33.791],[8.943,33.7],[8.966,33.677],[8.997,33.602],[9.049,33.576],[9.042,33.537],[8.902,33.515],[8.892,33.548],[8.907,33.6],[8.884,33.613],[8.811,33.534],[8.874,33.471],[8.866,33.444],[8.829,33.443],[8.775,33.487],[8.757,33.428],[8.723,33.492],[8.686,33.497],[8.636,33.461],[8.619,33.404],[8.586,33.382],[8.495,33.415],[8.434,33.401],[8.371,33.421],[8.305,33.414],[8.224,33.483],[8.217,33.541],[8.138,33.593],[8.017,33.656],[7.842,33.682],[7.767,33.765],[7.731,33.832],[7.785,33.871],[7.864,33.845],[8.067,33.871],[8.166,33.862],[8.181,33.882],[8.168,33.914],[8.182,33.949],[8.265,33.966],[8.3,34.006],[8.446,34.047],[8.545,34.047],[8.668,34.014],[8.751,34.04],[8.795,34.02],[8.983,34.023],[8.932,33.905]]]}},{"type":"Feature","properties":{"n":"Chott el Fejaj"},"geometry":{"type":"Polygon","coordinates":[[[8.983,34.023],[9.067,33.993],[9.096,33.95],[9.292,33.921],[9.694,34.011],[9.811,33.999],[9.773,33.964],[9.642,33.939],[9.603,33.901],[9.517,33.916],[9.414,33.881],[9.401,33.904],[9.307,33.873],[9.231,33.817],[9.054,33.815],[8.984,33.828],[8.932,33.905],[8.983,34.023]]]}},{"type":"Feature","properties":{"n":"Namakzar-e Shadad"},"geometry":{"type":"Polygon","coordinates":[[[57.923,31.304],[58.023,31.272],[58.025,31.192],[57.967,31.019],[57.969,30.953],[58.001,30.882],[58.087,30.822],[58.2,30.796],[58.303,30.738],[58.597,30.621],[58.661,30.562],[58.803,30.36],[58.838,30.239],[58.836,30.203],[58.811,30.171],[58.718,30.169],[58.552,30.227],[58.319,30.494],[58.275,30.524],[58.076,30.601],[58.04,30.655],[57.927,30.735],[57.933,30.833],[57.864,30.964],[57.86,31.008],[57.925,31.172],[57.895,31.232],[57.897,31.273],[57.923,31.304]]]}},{"type":"Feature","properties":{"n":"Lop Nur"},"geometry":{"type":"Polygon","coordinates":[[[90.729,40.257],[90.732,40.225],[90.655,40.103],[90.532,39.996],[90.456,39.968],[90.308,39.968],[90.27,39.995],[90.338,40.046],[90.353,40.086],[90.34,40.126],[90.291,40.155],[90.212,40.358],[90.212,40.474],[90.184,40.551],[90.099,40.695],[90.054,40.701],[90.123,40.787],[90.243,40.839],[90.276,40.808],[90.343,40.636],[90.44,40.478],[90.501,40.451],[90.476,40.385],[90.491,40.332],[90.567,40.277],[90.729,40.257]]]}},{"type":"Feature","properties":{"n":""},"geometry":{"type":"Polygon","coordinates":[[[9.843,22.136],[9.863,22.022],[9.854,21.968],[9.785,22.1],[9.721,22.147],[9.704,22.233],[9.686,22.245],[9.676,22.235],[9.695,22.003],[9.727,21.908],[9.68,21.917],[9.663,21.899],[9.674,21.86],[9.731,21.804],[9.715,21.751],[9.63,21.836],[9.575,21.929],[9.522,21.966],[9.517,21.987],[9.561,21.97],[9.564,21.983],[9.546,22.064],[9.524,22.069],[9.504,22.052],[9.47,22.064],[9.378,22.24],[9.241,22.258],[9.2,22.277],[9.148,22.349],[9.111,22.37],[9.054,22.356],[9.065,22.441],[9.038,22.472],[9.068,22.488],[9.143,22.472],[9.137,22.489],[9.158,22.523],[9.145,22.55],[9.052,22.61],[9.044,22.646],[9.064,22.678],[9.086,22.682],[9.153,22.663],[9.101,22.742],[9.116,22.795],[9.134,22.808],[9.153,22.79],[9.161,22.814],[9.134,22.879],[9.14,22.896],[9.153,22.894],[9.247,22.786],[9.29,22.804],[9.235,22.643],[9.216,22.458],[9.243,22.434],[9.311,22.476],[9.327,22.464],[9.306,22.327],[9.332,22.289],[9.379,22.284],[9.411,22.26],[9.48,22.126],[9.561,22.086],[9.633,21.946],[9.649,21.932],[9.669,21.953],[9.617,22.141],[9.626,22.28],[9.593,22.551],[9.581,22.579],[9.505,22.641],[9.472,22.712],[9.399,22.753],[9.425,22.813],[9.33,22.936],[9.293,23.094],[9.304,23.129],[9.378,22.95],[9.468,22.804],[9.546,22.728],[9.62,22.606],[9.633,22.455],[9.659,22.388],[9.747,22.258],[9.777,22.183],[9.843,22.136]]]}},{"type":"Feature","properties":{"n":""},"geometry":{"type":"Polygon","coordinates":[[[-65.122,-30.114],[-65.106,-30.153],[-65.147,-30.175],[-65.276,-30.133],[-65.437,-30.115],[-65.446,-30.137],[-65.426,-30.2],[-65.317,-30.319],[-65.321,-30.351],[-65.373,-30.351],[-65.496,-30.3],[-65.538,-30.238],[-65.544,-30.124],[-65.654,-30.061],[-65.648,-30.033],[-65.529,-29.976],[-65.486,-29.972],[-65.375,-30.004],[-65.28,-29.981],[-65.241,-29.996],[-65.193,-30.062],[-65.122,-30.114]]]}},{"type":"Feature","properties":{"n":""},"geometry":{"type":"Polygon","coordinates":[[[-64.713,-29.853],[-64.675,-30.018],[-64.703,-30.069],[-64.798,-30.113],[-64.971,-30.162],[-65.009,-30.16],[-65.017,-30.059],[-64.983,-29.955],[-64.96,-29.942],[-64.885,-29.966],[-64.86,-29.925],[-64.866,-29.828],[-64.945,-29.535],[-64.881,-29.512],[-64.847,-29.527],[-64.865,-29.627],[-64.843,-29.736],[-64.796,-29.8],[-64.713,-29.853]]]}},{"type":"Feature","properties":{"n":"Salinas de Ambargasta"},"geometry":{"type":"Polygon","coordinates":[[[-64.011,-28.909],[-64.022,-28.959],[-64.165,-29.197],[-64.22,-29.243],[-64.289,-29.259],[-64.242,-29.174],[-64.198,-29.143],[-64.204,-29.085],[-64.227,-29.044],[-64.278,-29.033],[-64.378,-29.067],[-64.392,-29.105],[-64.368,-29.193],[-64.408,-29.341],[-64.304,-29.43],[-64.347,-29.46],[-64.38,-29.51],[-64.458,-29.559],[-64.454,-29.497],[-64.415,-29.415],[-64.451,-29.404],[-64.512,-29.503],[-64.555,-29.537],[-64.562,-29.589],[-64.595,-29.511],[-64.531,-29.369],[-64.574,-29.237],[-64.572,-29.009],[-64.484,-28.938],[-64.373,-28.889],[-64.28,-28.891],[-64.139,-28.936],[-64.047,-28.897],[-64.011,-28.909]]]}},{"type":"Feature","properties":{"n":""},"geometry":{"type":"Polygon","coordinates":[[[52.849,34.83],[52.7,34.828],[52.635,34.773],[52.612,34.772],[52.532,34.8],[52.509,34.828],[52.464,34.815],[52.381,34.825],[52.198,34.893],[52.063,35.001],[51.931,35.03],[51.878,35.055],[51.851,35.089],[51.88,35.129],[51.935,35.147],[52.115,35.137],[52.3,35.178],[52.372,35.15],[52.504,35.148],[52.599,35.217],[52.687,35.191],[52.754,35.203],[52.829,35.244],[52.854,35.22],[52.926,35.195],[52.831,35.147],[52.648,35.125],[52.613,35.097],[52.571,35.02],[52.59,35.001],[52.701,34.999],[52.726,34.978],[52.703,34.925],[52.724,34.904],[52.844,34.866],[52.859,34.844],[52.849,34.83]]]}},{"type":"Feature","properties":{"n":"Makgadikgadi Pans"},"geometry":{"type":"Polygon","coordinates":[[[25.497,-20.285],[25.566,-20.236],[25.645,-20.205],[25.624,-20.25],[25.513,-20.36],[25.508,-20.417],[25.59,-20.475],[25.617,-20.518],[25.54,-20.669],[25.606,-20.878],[25.587,-20.915],[25.541,-20.923],[25.431,-20.841],[25.315,-20.841],[25.284,-20.806],[25.266,-20.751],[25.217,-20.74],[25.169,-20.752],[25.117,-20.789],[25.073,-20.847],[25.084,-20.904],[25.013,-20.949],[24.966,-20.934],[24.986,-20.806],[24.877,-20.656],[24.881,-20.627],[24.95,-20.594],[25.043,-20.6],[25.125,-20.543],[25.24,-20.531],[25.292,-20.502],[25.497,-20.285]]]}},{"type":"Feature","properties":{"n":"Makgadikgadi Pans"},"geometry":{"type":"Polygon","coordinates":[[[26.169,-20.483],[26.103,-20.54],[26.086,-20.575],[26.122,-20.603],[26.122,-20.63],[26.05,-20.835],[26.085,-20.831],[26.168,-20.866],[26.222,-20.893],[26.253,-20.929],[26.231,-20.978],[26.17,-21.016],[26.161,-21.04],[26.177,-21.107],[26.064,-21.174],[26.025,-21.179],[25.985,-21.125],[25.899,-21.093],[25.846,-21.039],[25.831,-20.959],[25.851,-20.849],[25.801,-20.786],[25.881,-20.727],[25.87,-20.687],[25.891,-20.615],[25.87,-20.513],[25.881,-20.484],[25.981,-20.387],[26.024,-20.307],[26.119,-20.362],[26.266,-20.335],[26.263,-20.378],[26.186,-20.437],[26.169,-20.483]]]}},{"type":"Feature","properties":{"n":"Hamun-i-Mashkel"},"geometry":{"type":"Polygon","coordinates":[[[62.792,28.25],[62.84,28.284],[62.829,28.319],[62.857,28.344],[62.825,28.403],[62.867,28.473],[62.886,28.487],[62.937,28.487],[62.987,28.524],[63.001,28.515],[62.998,28.424],[63.015,28.381],[63.143,28.37],[63.171,28.31],[63.355,28.271],[63.374,28.25],[63.38,28.181],[63.442,28.179],[63.449,28.167],[63.387,28.154],[63.391,28.114],[63.367,28.105],[63.311,28.145],[63.273,28.14],[63.234,28.184],[63.165,28.199],[63.017,28.078],[62.996,28.015],[62.891,28.002],[62.797,28.059],[62.763,28.051],[62.737,28.067],[62.68,28.139],[62.684,28.19],[62.784,28.154],[62.822,28.158],[62.792,28.25]]]}},{"type":"Feature","properties":{"n":"Hamun-e Jaz Murian"},"geometry":{"type":"Polygon","coordinates":[[[58.798,27.651],[59.014,27.583],[59.039,27.62],[59.092,27.648],[59.127,27.634],[59.069,27.568],[59.096,27.521],[59.091,27.494],[59.028,27.434],[58.99,27.423],[58.981,27.359],[58.938,27.302],[58.937,27.287],[58.971,27.266],[58.909,27.178],[58.769,27.188],[58.698,27.229],[58.679,27.3],[58.707,27.335],[58.718,27.564],[58.779,27.644],[58.798,27.651]]]}},{"type":"Feature","properties":{"n":""},"geometry":{"type":"Polygon","coordinates":[[[91.278,45.779],[91.536,45.766],[91.641,45.799],[91.69,45.779],[91.811,45.777],[91.82,45.769],[91.786,45.699],[91.738,45.687],[91.756,45.665],[91.851,45.635],[91.855,45.614],[91.879,45.607],[91.946,45.611],[91.954,45.592],[91.937,45.556],[91.956,45.539],[92.029,45.537],[92.059,45.513],[91.825,45.411],[91.511,45.474],[91.476,45.522],[91.486,45.556],[91.507,45.562],[91.547,45.555],[91.637,45.496],[91.698,45.481],[91.758,45.486],[91.764,45.509],[91.715,45.557],[91.617,45.607],[91.471,45.72],[91.184,45.738],[91.278,45.779]]]}},{"type":"Feature","properties":{"n":"Buena Vista Valley"},"geometry":{"type":"Polygon","coordinates":[[[-117.985,40.321],[-117.955,40.366],[-117.938,40.358],[-117.902,40.268],[-117.951,40.174],[-117.991,40.139],[-118.027,40.134],[-118.03,40.164],[-117.982,40.24],[-117.985,40.321]]]}},{"type":"Feature","properties":{"n":"Coal Valley"},"geometry":{"type":"Polygon","coordinates":[[[-115.339,37.979],[-115.298,38.084],[-115.269,38.115],[-115.235,38.025],[-115.265,37.967],[-115.263,37.879],[-115.295,37.853],[-115.329,37.854],[-115.345,37.886],[-115.339,37.979]]]}},{"type":"Feature","properties":{"n":"Laguna de Guzman"},"geometry":{"type":"Polygon","coordinates":[[[-107.469,31.54],[-107.373,31.491],[-107.347,31.445],[-107.301,31.44],[-107.315,31.395],[-107.384,31.385],[-107.45,31.425],[-107.482,31.346],[-107.53,31.365],[-107.536,31.394],[-107.477,31.458],[-107.469,31.54]]]}},{"type":"Feature","properties":{"n":""},"geometry":{"type":"Polygon","coordinates":[[[-118.292,38.958],[-118.197,38.97],[-118.176,38.95],[-118.209,38.912],[-118.197,38.877],[-118.128,38.887],[-118.124,38.861],[-118.161,38.843],[-118.163,38.82],[-118.248,38.86],[-118.325,38.843],[-118.327,38.886],[-118.359,38.902],[-118.292,38.958]]]}},{"type":"Feature","properties":{"n":"Bristol Lake"},"geometry":{"type":"Polygon","coordinates":[[[-115.752,34.501],[-115.724,34.547],[-115.696,34.546],[-115.605,34.5],[-115.578,34.459],[-115.623,34.423],[-115.641,34.374],[-115.656,34.374],[-115.734,34.45],[-115.808,34.471],[-115.752,34.501]]]}},{"type":"Feature","properties":{"n":""},"geometry":{"type":"Polygon","coordinates":[[[-64.944,-29.817],[-65.098,-29.962],[-65.126,-29.975],[-65.148,-29.952],[-65.168,-29.883],[-65.16,-29.81],[-65.138,-29.724],[-65.116,-29.698],[-65.038,-29.669],[-64.982,-29.669],[-64.933,-29.746],[-64.944,-29.817]]]}},{"type":"Feature","properties":{"n":""},"geometry":{"type":"Polygon","coordinates":[[[-66.655,-29.725],[-66.56,-29.88],[-66.588,-29.982],[-66.614,-30.014],[-66.659,-30.02],[-66.843,-30.014],[-66.837,-29.973],[-66.687,-29.734],[-66.655,-29.725]]]}},{"type":"Feature","properties":{"n":"Daqq-e Patergan"},"geometry":{"type":"Polygon","coordinates":[[[60.8,33.601],[60.764,33.538],[60.799,33.529],[60.793,33.512],[60.613,33.35],[60.581,33.35],[60.564,33.369],[60.548,33.447],[60.377,33.481],[60.432,33.513],[60.414,33.553],[60.425,33.591],[60.494,33.556],[60.569,33.579],[60.651,33.533],[60.684,33.535],[60.733,33.587],[60.8,33.601]]]}},{"type":"Feature","properties":{"n":"Chott Melrhir"},"geometry":{"type":"Polygon","coordinates":[[[6.368,34.093],[6.403,34.018],[6.3,34.014],[6.3,33.999],[6.363,33.947],[6.361,33.904],[6.338,33.902],[6.304,33.935],[6.255,33.92],[6.207,33.947],[6.112,33.873],[6.053,33.899],[6.007,33.874],[6.013,33.942],[5.946,33.948],[5.941,33.971],[5.973,34.036],[5.927,34.137],[5.94,34.168],[5.975,34.191],[6.058,34.204],[6.096,34.166],[6.075,34.118],[6.162,34.046],[6.204,34.041],[6.235,34.089],[6.266,34.07],[6.368,34.093]]]}},{"type":"Feature","properties":{"n":"Chott el Gharsa"},"geometry":{"type":"Polygon","coordinates":[[[7.77,34.042],[7.729,34.08],[7.46,34.059],[7.384,34.036],[7.37,34.059],[7.397,34.1],[7.528,34.138],[7.556,34.107],[7.698,34.133],[7.734,34.154],[8.09,34.194],[8.053,34.082],[8.078,34.065],[8.111,34.078],[8.121,34.052],[8.101,34.011],[8.074,34.004],[7.98,34.023],[7.966,34.047],[7.926,34.027],[7.869,34.024],[7.77,34.042]]]}},{"type":"Feature","properties":{"n":"Chott ech Chergui"},"geometry":{"type":"Polygon","coordinates":[[[0.983,34.55],[1.186,34.641],[1.157,34.595],[1.162,34.562],[1.059,34.451],[1.065,34.38],[0.986,34.304],[0.959,34.291],[0.806,34.303],[0.695,34.257],[0.741,34.329],[0.818,34.384],[0.781,34.404],[0.719,34.395],[0.472,34.268],[0.469,34.242],[0.582,34.228],[0.63,34.198],[0.486,34.198],[0.402,34.161],[0.243,34.149],[0.137,34.123],[0.203,34.176],[0.235,34.231],[0.275,34.239],[0.331,34.219],[0.327,34.24],[0.377,34.276],[0.689,34.432],[0.851,34.476],[0.863,34.493],[0.857,34.549],[0.911,34.6],[0.936,34.6],[0.954,34.561],[0.983,34.55]]]}},{"type":"Feature","properties":{"n":""},"geometry":{"type":"Polygon","coordinates":[[[22.314,32.074],[22.362,32.064],[22.326,32.039],[22.26,32.031],[22.155,32.068],[22.169,32.012],[22.154,32.0],[22.071,32.028],[22.025,32.006],[22.009,32.063],[21.966,32.091],[21.997,32.132],[21.978,32.181],[21.994,32.242],[22.004,32.258],[22.067,32.169],[22.087,32.172],[22.107,32.215],[22.198,32.18],[22.231,32.135],[22.28,32.126],[22.314,32.074]]]}},{"type":"Feature","properties":{"n":""},"geometry":{"type":"Polygon","coordinates":[[[42.555,32.087],[42.546,32.056],[42.447,32.015],[42.376,32.056],[42.285,32.037],[42.216,32.044],[42.229,32.065],[42.305,32.083],[42.326,32.102],[42.312,32.133],[42.283,32.149],[42.234,32.11],[42.198,32.116],[42.239,32.189],[42.239,32.216],[42.211,32.236],[42.154,32.231],[42.143,32.179],[42.109,32.161],[42.107,32.148],[42.15,32.119],[42.132,32.106],[42.06,32.116],[41.978,32.171],[41.877,32.186],[41.873,32.201],[41.888,32.208],[42.007,32.224],[42.032,32.253],[42.091,32.28],[42.07,32.302],[41.916,32.335],[42.036,32.353],[42.044,32.379],[41.974,32.454],[41.897,32.508],[41.949,32.509],[42.009,32.483],[42.083,32.41],[42.094,32.444],[42.088,32.55],[42.105,32.544],[42.137,32.466],[42.259,32.319],[42.323,32.266],[42.365,32.121],[42.426,32.09],[42.555,32.087]]]}},{"type":"Feature","properties":{"n":""},"geometry":{"type":"Polygon","coordinates":[[[52.941,32.235],[52.972,32.129],[52.954,32.044],[52.875,32.019],[52.806,32.033],[52.752,32.012],[52.729,32.049],[52.731,32.09],[52.796,32.241],[52.914,32.259],[52.941,32.235]]]}},{"type":"Feature","properties":{"n":"Kavir-e Abarkuh"},"geometry":{"type":"Polygon","coordinates":[[[54.127,30.713],[54.215,30.635],[54.167,30.638],[54.087,30.674],[54.024,30.736],[53.837,30.844],[53.789,30.842],[53.73,30.786],[53.712,30.792],[53.725,30.89],[53.627,31.112],[53.617,31.184],[53.688,31.239],[53.739,31.155],[53.756,31.07],[53.897,30.896],[54.044,30.806],[54.136,30.782],[54.127,30.713]]]}},{"type":"Feature","properties":{"n":"Gowd-e Zereh"},"geometry":{"type":"Polygon","coordinates":[[[62.394,30.045],[62.445,30.021],[62.47,29.97],[62.568,29.94],[62.568,29.919],[62.51,29.902],[62.472,29.832],[62.434,29.799],[62.287,29.779],[62.253,29.798],[62.208,29.742],[61.962,29.697],[61.824,29.71],[61.677,29.661],[61.585,29.689],[61.546,29.717],[61.52,29.765],[61.52,29.814],[61.574,29.848],[61.736,29.785],[61.792,29.779],[61.959,29.812],[62.037,29.785],[62.117,29.801],[62.208,29.845],[62.235,29.928],[62.363,29.98],[62.378,30.037],[62.394,30.045]]]}},{"type":"Feature","properties":{"n":"Daryacheh-ye Sistan"},"geometry":{"type":"Polygon","coordinates":[[[61.266,31.032],[61.32,31.012],[61.338,30.983],[61.25,30.972],[61.236,30.957],[61.255,30.747],[61.215,30.648],[61.191,30.624],[61.138,30.614],[60.979,30.482],[60.955,30.497],[60.972,30.583],[61.023,30.63],[61.106,30.642],[61.106,30.717],[61.195,30.779],[61.195,30.914],[61.149,30.944],[61.079,30.942],[61.057,30.963],[61.052,31.001],[61.069,31.018],[61.266,31.032]]]}},{"type":"Feature","properties":{"n":"Hamun-e Saberi"},"geometry":{"type":"Polygon","coordinates":[[[61.263,31.587],[61.337,31.591],[61.39,31.558],[61.488,31.377],[61.602,31.242],[61.611,31.21],[61.571,31.208],[61.463,31.279],[61.426,31.334],[61.43,31.406],[61.376,31.406],[61.309,31.297],[61.288,31.225],[61.227,31.168],[61.176,31.176],[61.167,31.211],[61.221,31.249],[61.256,31.371],[61.149,31.55],[61.16,31.587],[61.183,31.605],[61.263,31.587]]]}},{"type":"Feature","properties":{"n":""},"geometry":{"type":"Polygon","coordinates":[[[115.426,50.041],[115.394,50.133],[115.406,50.164],[115.557,50.226],[115.667,50.219],[115.667,50.202],[115.637,50.187],[115.538,50.178],[115.502,50.117],[115.592,50.11],[115.66,50.144],[115.661,50.105],[115.608,50.064],[115.62,50.05],[115.702,50.036],[115.69,50.074],[115.71,50.125],[115.773,50.161],[115.841,50.159],[115.95,50.108],[115.939,50.051],[115.918,50.035],[115.821,49.992],[115.662,49.982],[115.575,49.946],[115.574,49.916],[115.54,49.905],[115.491,49.925],[115.376,49.928],[115.386,49.983],[115.426,50.041]]]}},{"type":"Feature","properties":{"n":"Fortescue River Floodout"},"geometry":{"type":"Polygon","coordinates":[[[119.937,-22.597],[119.901,-22.576],[119.841,-22.57],[119.878,-22.636],[119.852,-22.635],[119.809,-22.617],[119.781,-22.566],[119.74,-22.54],[119.662,-22.529],[119.59,-22.54],[119.393,-22.44],[119.158,-22.444],[119.042,-22.378],[119.029,-22.347],[119.137,-22.31],[119.209,-22.331],[119.277,-22.318],[119.292,-22.347],[119.43,-22.396],[119.707,-22.457],[119.787,-22.509],[119.872,-22.529],[119.922,-22.566],[119.937,-22.597]]]}},{"type":"Feature","properties":{"n":"Danby Lake"},"geometry":{"type":"Polygon","coordinates":[[[-115.213,34.269],[-115.098,34.259],[-115.044,34.216],[-115.023,34.165],[-115.033,34.139],[-115.097,34.199],[-115.213,34.269]]]}},{"type":"Feature","properties":{"n":""},"geometry":{"type":"Polygon","coordinates":[[[-117.045,39.094],[-117.033,39.03],[-117.049,38.981],[-117.075,38.974],[-117.149,38.994],[-117.142,39.038],[-117.068,39.122],[-117.045,39.094]]]}},{"type":"Feature","properties":{"n":"Searles Lake"},"geometry":{"type":"Polygon","coordinates":[[[-117.331,35.815],[-117.263,35.721],[-117.26,35.691],[-117.277,35.677],[-117.334,35.68],[-117.377,35.707],[-117.375,35.757],[-117.349,35.804],[-117.331,35.815]]]}},{"type":"Feature","properties":{"n":"Soda Lake"},"geometry":{"type":"Polygon","coordinates":[[[-116.013,35.075],[-116.097,35.123],[-116.091,35.21],[-116.074,35.251],[-116.032,35.226],[-116.003,35.085],[-116.013,35.075]]]}},{"type":"Feature","properties":{"n":""},"geometry":{"type":"Polygon","coordinates":[[[-104.873,24.815],[-104.908,24.885],[-104.961,24.918],[-104.972,24.996],[-104.871,24.913],[-104.869,24.855],[-104.819,24.791],[-104.702,24.717],[-104.748,24.702],[-104.776,24.714],[-104.8,24.695],[-104.823,24.707],[-104.872,24.769],[-104.873,24.815]]]}},{"type":"Feature","properties":{"n":""},"geometry":{"type":"Polygon","coordinates":[[[-118.59,39.997],[-118.596,39.977],[-118.646,39.974],[-118.613,40.063],[-118.606,40.012],[-118.59,39.997]]]}},{"type":"Feature","properties":{"n":"Salar de Pipanaco"},"geometry":{"type":"Polygon","coordinates":[[[-66.231,-27.807],[-66.214,-27.82],[-66.214,-27.856],[-66.352,-28.128],[-66.377,-28.271],[-66.435,-28.384],[-66.449,-28.469],[-66.502,-28.532],[-66.531,-28.535],[-66.535,-28.499],[-66.501,-28.419],[-66.51,-28.354],[-66.429,-28.154],[-66.394,-27.996],[-66.231,-27.807]]]}},{"type":"Feature","properties":{"n":""},"geometry":{"type":"Polygon","coordinates":[[[-66.503,-29.258],[-66.439,-29.296],[-66.451,-29.393],[-66.47,-29.43],[-66.491,-29.427],[-66.561,-29.339],[-66.568,-29.287],[-66.548,-29.251],[-66.503,-29.258]]]}},{"type":"Feature","properties":{"n":"Salar de Punta Negra"},"geometry":{"type":"Polygon","coordinates":[[[-68.799,-24.37],[-68.713,-24.341],[-68.716,-24.42],[-68.902,-24.679],[-68.932,-24.837],[-68.955,-24.867],[-68.978,-24.835],[-69.031,-24.629],[-69.019,-24.59],[-68.861,-24.412],[-68.799,-24.37]]]}},{"type":"Feature","properties":{"n":"Kavir-e ?ajj `ali qoli"},"geometry":{"type":"Polygon","coordinates":[[[53.104,35.02],[53.071,35.016],[53.046,35.044],[53.052,35.084],[53.12,35.201],[53.209,35.233],[53.33,35.202],[53.327,35.161],[53.281,35.118],[53.104,35.02]]]}},{"type":"Feature","properties":{"n":""},"geometry":{"type":"Polygon","coordinates":[[[48.142,10.321],[48.156,10.241],[48.234,10.084],[48.211,10.086],[48.175,10.133],[48.154,10.137],[48.139,10.089],[48.11,10.085],[48.079,10.261],[48.03,10.31],[47.994,10.379],[48.046,10.362],[48.085,10.317],[48.098,10.379],[48.142,10.321]]]}},{"type":"Feature","properties":{"n":""},"geometry":{"type":"Polygon","coordinates":[[[48.689,10.2],[48.652,10.151],[48.672,10.143],[48.623,10.105],[48.601,10.106],[48.588,10.144],[48.562,10.131],[48.526,10.141],[48.51,10.14],[48.481,10.097],[48.359,10.087],[48.475,10.19],[48.583,10.196],[48.641,10.228],[48.689,10.2]]]}},{"type":"Feature","properties":{"n":""},"geometry":{"type":"Polygon","coordinates":[[[15.305,29.15],[15.334,29.1],[15.326,29.072],[15.291,29.058],[15.272,29.031],[15.253,28.928],[15.194,28.966],[15.203,28.997],[15.185,29.021],[15.298,29.267],[15.305,29.15]]]}},{"type":"Feature","properties":{"n":""},"geometry":{"type":"Polygon","coordinates":[[[16.216,28.953],[16.223,28.92],[16.189,28.879],[16.095,28.872],[15.978,28.914],[15.968,28.98],[15.923,28.994],[15.914,29.016],[16.086,29.01],[16.183,29.029],[16.201,29.022],[16.185,28.976],[16.216,28.953]]]}},{"type":"Feature","properties":{"n":""},"geometry":{"type":"Polygon","coordinates":[[[39.371,32.507],[39.381,32.417],[39.343,32.402],[39.315,32.357],[39.325,32.327],[39.31,32.309],[39.315,32.262],[39.246,32.281],[39.225,32.378],[39.239,32.399],[39.165,32.485],[39.182,32.523],[39.212,32.536],[39.239,32.467],[39.259,32.467],[39.271,32.633],[39.29,32.601],[39.308,32.488],[39.328,32.478],[39.371,32.507]]]}},{"type":"Feature","properties":{"n":"Kavir-e Namak-e Sirjan"},"geometry":{"type":"Polygon","coordinates":[[[54.7,30.016],[54.725,29.984],[54.688,29.972],[54.664,30.003],[54.622,30.019],[54.636,30.08],[54.367,30.227],[54.323,30.331],[54.349,30.405],[54.339,30.462],[54.369,30.463],[54.466,30.343],[54.487,30.281],[54.568,30.22],[54.615,30.212],[54.652,30.185],[54.695,30.103],[54.726,30.09],[54.7,30.016]]]}},{"type":"Feature","properties":{"n":"Hamun-i-Lora"},"geometry":{"type":"Polygon","coordinates":[[[64.812,29.532],[64.844,29.522],[64.941,29.581],[64.953,29.573],[64.875,29.435],[64.888,29.397],[64.882,29.233],[64.92,29.147],[64.84,29.127],[64.756,29.14],[64.736,29.176],[64.773,29.313],[64.758,29.37],[64.786,29.401],[64.812,29.532]]]}},{"type":"Feature","properties":{"n":"Biger Nuur"},"geometry":{"type":"Polygon","coordinates":[[[96.993,45.902],[97.207,45.769],[97.432,45.691],[97.383,45.669],[97.288,45.668],[96.883,45.861],[96.915,45.909],[96.993,45.902]]]}},{"type":"Feature","properties":{"n":""},"geometry":{"type":"Polygon","coordinates":[[[102.804,42.311],[102.631,42.306],[102.605,42.324],[102.777,42.389],[102.822,42.387],[102.818,42.45],[102.916,42.485],[102.876,42.386],[102.961,42.403],[103.018,42.384],[103.006,42.354],[102.825,42.333],[102.804,42.311]]]}},{"type":"Feature","properties":{"n":""},"geometry":{"type":"Polygon","coordinates":[[[94.892,43.827],[94.954,43.84],[95.051,43.788],[95.122,43.771],[95.175,43.706],[95.215,43.701],[95.27,43.647],[95.505,43.577],[95.485,43.561],[95.427,43.582],[95.456,43.524],[95.45,43.51],[95.362,43.578],[95.236,43.636],[95.154,43.647],[95.095,43.682],[95.033,43.756],[94.949,43.787],[94.922,43.771],[94.891,43.774],[94.835,43.853],[94.892,43.827]]]}},{"type":"Feature","properties":{"n":"Gaxun Nur"},"geometry":{"type":"Polygon","coordinates":[[[100.697,42.346],[100.618,42.374],[100.553,42.325],[100.513,42.357],[100.497,42.405],[100.527,42.417],[100.579,42.405],[100.619,42.459],[100.653,42.475],[100.71,42.456],[100.839,42.479],[100.906,42.427],[100.841,42.42],[100.697,42.346]]]}},{"type":"Feature","properties":{"n":"Tsagaan Nuur"},"geometry":{"type":"Polygon","coordinates":[[[94.677,46.156],[94.806,46.21],[94.938,46.241],[95.054,46.306],[95.408,46.193],[95.65,46.156],[95.681,46.119],[95.664,46.078],[95.618,46.065],[95.436,46.151],[95.233,46.19],[95.056,46.2],[94.993,46.187],[94.809,46.079],[94.766,46.071],[94.719,46.088],[94.876,46.16],[94.902,46.191],[94.705,46.138],[94.677,46.156]]]}},{"type":"Feature","properties":{"n":""},"geometry":{"type":"Polygon","coordinates":[[[88.619,42.097],[88.805,42.039],[88.897,41.986],[89.022,41.967],[89.054,41.921],[89.492,41.812],[89.513,41.794],[89.459,41.766],[89.386,41.766],[89.274,41.83],[89.176,41.836],[89.082,41.873],[88.919,41.909],[88.797,41.978],[88.62,42.019],[88.49,42.076],[88.423,42.144],[88.534,42.159],[88.619,42.097]]]}},{"type":"Feature","properties":{"n":"\u00dclken Qaraoy K\u00f6li"},"geometry":{"type":"Polygon","coordinates":[[[71.885,53.986],[71.879,53.916],[71.919,53.845],[71.897,53.839],[71.875,53.847],[71.836,53.914],[71.831,53.955],[71.857,54.009],[71.91,54.043],[71.953,54.049],[72.022,54.03],[72.07,53.989],[71.885,53.986]]]}},{"type":"Feature","properties":{"n":"\u00dclken Qaraoy K\u00f6li"},"geometry":{"type":"Polygon","coordinates":[[[72.127,53.985],[72.173,53.896],[72.167,53.859],[72.1,53.808],[72.015,53.804],[72.111,53.845],[72.077,53.889],[72.111,53.92],[72.097,53.926],[72.109,53.949],[72.084,53.954],[72.094,53.989],[72.127,53.985]]]}},{"type":"Feature","properties":{"n":"Aralkum Desert"},"geometry":{"type":"Polygon","coordinates":[[[59.577,45.664],[59.706,45.665],[59.697,45.573],[59.711,45.555],[59.736,45.538],[59.898,45.514],[59.943,45.455],[59.918,45.401],[59.94,45.363],[59.924,45.301],[59.939,45.276],[59.9,45.23],[59.952,45.164],[59.983,45.02],[59.965,44.946],[59.83,44.753],[59.705,44.646],[59.616,44.615],[59.497,44.678],[59.43,44.742],[59.423,44.769],[59.427,44.795],[59.497,44.876],[59.633,45.286],[59.685,45.323],[59.703,45.365],[59.7,45.463],[59.604,45.52],[59.574,45.559],[59.564,45.645],[59.577,45.664]]]}}]}